NORAD_CAT_ID,OBJECT_NAME,OBJECT_TYPE,EPOCH,MEAN_MOTION,ECCENTRICITY,INCLINATION,RA_OF_ASC_NODE,ARG_OF_PERICENTER,MEAN_ANOMALY,BSTAR,MEAN_MOTION_DOT,MEAN_MOTION_DDOT,TLE_LINE0,TLE_LINE1,TLE_LINE2,SEMIMAJOR_AXIS,PERIOD,APOGEE,PERIGEE,DECAYED
49409.0,STARLINK-3075,PAYLOAD,2022-10-13 04:50:33,15.08835875,0.000202,53.2169,51.3619,36.9603,323.1528,0.00032139,4.83e-05,0.0,0 STARLINK-3075,1 49409U 21104B   22286.20177761  .00004830  00000-0  32139-3 0  9991,2 49409  53.2169  51.3619 0002020  36.9603 323.1528 15.08835875 51998,6917.893,95.438,541.155,538.361,0.0
49409.0,STARLINK-3075,PAYLOAD,2022-10-13 11:12:06,15.08835262,0.0001903,53.217,50.1716,40.5345,319.5788,0.00028446,4.241e-05,0.0,0 STARLINK-3075,1 49409U 21104B   22286.46673895  .00004241  00000-0  28446-3 0  9990,2 49409  53.2170  50.1716 0001903  40.5345 319.5788 15.08835262 50950,6917.895,95.438,541.076,538.443,0.0
49409.0,STARLINK-3075,PAYLOAD,2022-10-14 11:02:52,15.08844829,0.0001989,53.216,45.7089,50.0141,310.1025,0.00014233,1.978e-05,0.0,0 STARLINK-3075,1 49409U 21104B   22287.46033450  .00001978  00000-0  14233-3 0  9991,2 49409  53.2160  45.7089 0001989  50.0141 310.1025 15.08844829 52183,6917.866,95.437,541.107,538.355,0.0
49409.0,STARLINK-3075,PAYLOAD,2022-10-14 14:13:39,15.08842251,0.0001865999999999,53.2166,45.1146,51.2977,308.8182,0.00017107,2.436e-05,0.0,0 STARLINK-3075,1 49409U 21104B   22287.59281587  .00002436  00000-0  17107-3 0  9994,2 49409  53.2166  45.1146 0001866  51.2977 308.8182 15.08842251 51129,6917.874,95.437,541.029,538.448,0.0
49409.0,STARLINK-3075,PAYLOAD,2022-10-15 12:29:03,15.08843374,0.0001844999999999,53.2174,40.9521,47.0263,313.0884,0.00011263,1.505e-05,0.0,0 STARLINK-3075,1 49409U 21104B   22288.52017437  .00001505  00000-0  11263-3 0  9992,2 49409  53.2174  40.9521 0001845  47.0263 313.0884 15.08843374 52345,6917.87,95.437,541.011,538.4590000000002,0.0
49409.0,STARLINK-3075,PAYLOAD,2022-10-15 14:04:26,15.08845089,0.0001918,53.2173,40.6551,41.0183,319.0953,0.00015549,2.188e-05,0.0,0 STARLINK-3075,1 49409U 21104B   22288.58641348  .00002188  00000-0  15549-3 0  9991,2 49409  53.2173  40.6551 0001918  41.0183 319.0953 15.08845089 51279,6917.865,95.437,541.057,538.403,0.0
49409.0,STARLINK-3075,PAYLOAD,2022-10-16 02:47:31,15.0882982,0.0002034,53.2173,38.2773,40.3778,319.7365,-4.4271e-05,-9.93e-06,0.0,0 STARLINK-3075,1 49409U 21104B   22289.11634159 -.00000993  00000-0 -44271-4 0  9992,2 49409  53.2173  38.2773 0002034  40.3778 319.7365 15.08829820 52438,6917.9119999999975,95.438,541.184,538.369,0.0
49409.0,STARLINK-3075,PAYLOAD,2022-10-16 10:44:28,15.08816023,0.0002163,53.2171,36.7908,38.2333,321.8812,-0.00024431,-4.172e-05,0.0,0 STARLINK-3075,1 49409U 21104B   22289.44755161 -.00004172  00000-0 -24431-3 0  9993,2 49409  53.2171  36.7908 0002163  38.2333 321.8812 15.08816023 52482,6917.954000000002,95.439,541.315,538.322,0.0
49409.0,STARLINK-3075,PAYLOAD,2022-10-16 12:19:51,15.0881549,0.0002079,53.2169,36.4932,40.6181,319.4966,-0.00024581,-4.196e-05,0.0,0 STARLINK-3075,1 49409U 21104B   22289.51379275 -.00004196  00000-0 -24581-3 0  9991,2 49409  53.2169  36.4932 0002079  40.6181 319.4966 15.08815490 51419,6917.955,95.439,541.259,538.382,0.0
49409.0,STARLINK-3075,PAYLOAD,2022-10-16 17:06:01,15.08819086,0.0002157,53.2171,35.6015,38.8878,321.2269,-0.00011909,-2.182e-05,0.0,0 STARLINK-3075,1 49409U 21104B   22289.71251412 -.00002182  00000-0 -11909-3 0  9998,2 49409  53.2171  35.6015 0002157  38.8878 321.2269 15.08819086 51449,6917.944,95.439,541.302,538.317,0.0
49409.0,STARLINK-3075,PAYLOAD,2022-10-17 04:13:43,15.08833916,0.0002254999999999,53.2178,33.5212,36.8824,323.2323,0.00022738,3.332e-05,0.0,0 STARLINK-3075,1 49409U 21104B   22290.17619405  .00003332  00000-0  22738-3 0  9998,2 49409  53.2178  33.5212 0002255  36.8824 323.2323 15.08833916 52598,6917.899,95.438,541.3240000000002,538.2040000000002,0.0
49409.0,STARLINK-3075,PAYLOAD,2022-10-17 13:46:02,15.08849191,0.0002285,53.2175,31.7363,37.5192,322.5959,0.0010328,0.00016191,0.0,0 STARLINK-3075,1 49409U 21104B   22290.57363599  .00016191  00000-0  10328-2 0  9990,2 49409  53.2175  31.7363 0002285  37.5192 322.5959 15.08849191 51577,6917.852,95.437,541.298,538.137,0.0
49409.0,STARLINK-3075,PAYLOAD,2022-10-17 16:56:48,15.08859144,0.0002328,53.2175,31.1414,37.0368,323.0784,0.001171,0.00018408,0.0,0 STARLINK-3075,1 49409U 21104B   22290.70611432  .00018408  00000-0  11710-2 0  9996,2 49409  53.2175  31.1414 0002328  37.0368 323.0784 15.08859144 51599,6917.821999999999,95.436,541.297,538.076,0.0
49409.0,STARLINK-3075,PAYLOAD,2022-10-18 05:39:52,15.08858025,0.0002648,53.2184,28.765,22.6835,337.4274,0.00039285,5.973e-05,0.0,0 STARLINK-3075,1 49409U 21104B   22291.23602882  .00005973  00000-0  39285-3 0  9995,2 49409  53.2184  28.7650 0002648  22.6835 337.4274 15.08858025 52756,6917.825,95.436,541.5219999999998,537.8580000000002,0.0
49409.0,STARLINK-3075,PAYLOAD,2022-10-18 08:50:39,15.08849701,0.0002319,53.2182,28.1681,30.5662,329.5465,-1.4135e-05,-5.13e-06,0.0,0 STARLINK-3075,1 49409U 21104B   22291.36850805 -.00000513  00000-0 -14135-4 0  9994,2 49409  53.2182  28.1681 0002319  30.5662 329.5465 15.08849701 52770,6917.851,95.437,541.32,538.111,0.0
49409.0,STARLINK-3075,PAYLOAD,2022-10-19 11:52:12,15.08849584,0.000231,53.2175,23.1128,33.485,326.6288,0.00050855,7.817e-05,0.0,0 STARLINK-3075,1 49409U 21104B   22292.49458729  .00007817  00000-0  50855-3 0  9998,2 49409  53.2175  23.1128 0002310  33.4850 326.6288 15.08849584 52944,6917.851,95.437,541.314,538.118,0.0
49409.0,STARLINK-3075,PAYLOAD,2022-10-20 11:42:59,15.0884275,0.0002224,53.2172,18.6539,32.2766,327.8362,8.8361e-05,1.118e-05,0.0,0 STARLINK-3075,1 49409U 21104B   22293.48818636  .00001118  00000-0  88361-4 0  9997,2 49409  53.2172  18.6539 0002224  32.2766 327.8362 15.08842750 52015,6917.871999999999,95.437,541.276,538.198,0.0
49409.0,STARLINK-3075,PAYLOAD,2022-10-21 11:33:46,15.08836544,0.0002195999999999,53.2177,14.1925,33.6717,326.4414,0.00014065,1.951e-05,0.0,0 STARLINK-3075,1 49409U 21104B   22294.48179072  .00001951  00000-0  14065-3 0  9996,2 49409  53.2177  14.1925 0002196  33.6717 326.4414 15.08836544 53242,6917.891,95.438,541.275,538.237,0.0
49409.0,STARLINK-3075,PAYLOAD,2022-10-22 03:27:37,15.08844846,0.0001779,53.2179,11.2176,37.2881,322.8234,0.00017405,2.483e-05,0.0,0 STARLINK-3075,1 49409U 21104B   22295.14418365  .00002483  00000-0  17405-3 0  9993,2 49409  53.2179  11.2176 0001779  37.2881 322.8234 15.08844846 53343,6917.866,95.437,540.961,538.5,0.0
49409.0,STARLINK-3075,PAYLOAD,2022-10-22 11:24:33,15.08842093,0.000185,53.2184,9.7311,38.0336,322.0787,9.016e-05,1.147e-05,0.0,0 STARLINK-3075,1 49409U 21104B   22295.47538520  .00001147  00000-0  90160-4 0  9991,2 49409  53.2184   9.7311 0001850  38.0336 322.0787 15.08842093 52319,6917.874,95.437,541.019,538.4590000000002,0.0
49409.0,STARLINK-3075,PAYLOAD,2022-10-22 14:35:19,15.08845539,0.0001984,53.2184,9.1363,37.1318,322.9811,0.00011052,1.471e-05,0.0,0 STARLINK-3075,1 49409U 21104B   22295.60786252  .00001471  00000-0  11052-3 0  9995,2 49409  53.2184   9.1363 0001984  37.1318 322.9811 15.08845539 52335,6917.863,95.437,541.101,538.356,0.0
49409.0,STARLINK-3075,PAYLOAD,2022-10-23 04:53:47,15.08852588,0.0002125,53.2178,6.4608,34.6829,325.4301,0.00024327,3.587e-05,0.0,0 STARLINK-3075,1 49409U 21104B   22296.20401770  .00003587  00000-0  24327-3 0  9990,2 49409  53.2178   6.4608 0002125  34.6829 325.4301 15.08852588 53501,6917.842,95.437,541.177,538.237,0.0
49409.0,STARLINK-3075,PAYLOAD,2022-10-23 11:15:19,15.08859166,0.000224,53.2176,5.2717,32.3057,327.8072,0.00030746,4.611e-05,0.0,0 STARLINK-3075,1 49409U 21104B   22296.46897309  .00004611  00000-0  30746-3 0  9996,2 49409  53.2176   5.2717 0002240  32.3057 327.8072 15.08859166 52467,6917.821999999999,95.436,541.236,538.137,0.0
49409.0,STARLINK-3075,PAYLOAD,2022-10-24 09:30:42,15.08854641,0.0001867,53.218,1.1075,33.8642,326.2469,0.00010062,1.314e-05,0.0,0 STARLINK-3075,1 49409U 21104B   22297.39632529  .00001314  00000-0  10062-3 0  9996,2 49409  53.2180   1.1075 0001867  33.8642 326.2469 15.08854641 52606,6917.8359999999975,95.437,540.992,538.409,0.0
49409.0,STARLINK-3075,PAYLOAD,2022-10-24 11:06:06,15.08832524,0.0001950999999999,53.2179,0.8112,34.3617,325.7501,-0.00015048,-2.682e-05,0.0,0 STARLINK-3075,1 49409U 21104B   22297.46257741 -.00002682  00000-0 -15048-3 0  9993,2 49409  53.2179   0.8112 0001951  34.3617 325.7501 15.08832524 53691,6917.903,95.438,541.118,538.419,0.0
49409.0,STARLINK-3075,PAYLOAD,2022-10-25 04:35:23,15.08818093,0.0002149,53.2182,357.5403,37.4996,322.6146,-0.00018085,-3.164e-05,0.0,0 STARLINK-3075,1 49409U 21104B   22298.19124142 -.00003164  00000-0 -18085-3 0  9992,2 49409  53.2182 357.5403 0002149  37.4996 322.6146 15.08818093 53803,6917.946999999999,95.439,541.299,538.326,0.0
49409.0,STARLINK-3075,PAYLOAD,2022-10-25 10:56:54,15.0882893,0.0002371,53.2174,356.3516,31.6168,328.4966,-7.6301e-05,-1.502e-05,0.0,0 STARLINK-3075,1 49409U 21104B   22298.45618964 -.00001502  00000-0 -76301-4 0  9991,2 49409  53.2174 356.3516 0002371  31.6168 328.4966 15.08828930 53849,6917.9140000000025,95.438,541.419,538.139,0.0
49409.0,STARLINK-3075,PAYLOAD,2022-10-26 12:23:05,15.08853345,0.0002517,53.2174,351.5943,31.5879,328.5264,0.00088645,0.00013853,0.0,0 STARLINK-3075,1 49409U 21104B   22299.51603554  .00013853  00000-0  88645-3 0  9991,2 49409  53.2174 351.5943 0002517  31.5879 328.5264 15.08853345 54009,6917.84,95.437,541.446,537.9630000000002,0.0
49409.0,STARLINK-3075,PAYLOAD,2022-10-27 04:16:56,15.08851113,0.0003145,53.2168,348.6207,11.2878,348.8184,0.00036147,5.471e-05,0.0,0 STARLINK-3075,1 49409U 21104B   22300.17843175  .00005471  00000-0  36147-3 0  9998,2 49409  53.2168 348.6207 0003145  11.2878 348.8184 15.08851113 54102,6917.846,95.437,541.887,537.536,0.0
